STARLINK-1067
1 44771U 19074BL  26090.91671296  .00190705  00000+0  21344-2 0  9999
2 44771  53.0482  96.0163 0006610  52.6492 205.8692 15.61569485  5808
STARLINK-1279
1 45360U 20019A   26090.91671296  .00108803  00000+0  12224-2 0  9990
2 45360  53.0417 350.5205 0003085 190.4721  47.7743 15.61803518  5803
STARLINK-1873
1 47158U 20088AN  26090.83335647  .00115457  00000+0  13059-2 0  9991
2 47158  53.0467 161.1353 0003337 260.7881  47.7375 15.61600437  5977
STARLINK-1994
1 47589U 21009AT  26090.83335647  .00203886  00000+0  22554-2 0  9997
2 47589  53.0447 254.4298 0005707 192.1044 201.7731 15.61830286  5873
